#dV2023  1 26 10  0  0.00000000    1682       CTS   FIT  GFZ
## 2246 381600.00000000    30.00000000 59970 0.4166666666667
+    1   L65  0  0  0  0  0  0  0  0  0  0  0  0  0  0  0  0
+          0  0  0  0  0  0  0  0  0  0  0  0  0  0  0  0  0
+          0  0  0  0  0  0  0  0  0  0  0  0  0  0  0  0  0
+          0  0  0  0  0  0  0  0  0  0  0  0  0  0  0  0  0
+          0  0  0  0  0  0  0  0  0  0  0  0  0  0  0  0  0
++         0  0  0  0  0  0  0  0  0  0  0  0  0  0  0  0  0
++         0  0  0  0  0  0  0  0  0  0  0  0  0  0  0  0  0
++         0  0  0  0  0  0  0  0  0  0  0  0  0  0  0  0  0
++         0  0  0  0  0  0  0  0  0  0  0  0  0  0  0  0  0
++         0  0  0  0  0  0  0  0  0  0  0  0  0  0  0  0  0
%c L  cc GPS ccc cccc cccc cccc cccc ccccc ccccc ccccc ccccc
%c cc cc ccc ccc cccc cccc cccc cccc ccccc ccccc ccccc ccccc
%f  0.0000000  0.000000000  0.00000000000  0.000000000000000
%f  0.0000000  0.000000000  0.00000000000  0.000000000000000
%i    0    0    0    0      0      0      0      0         0
%i    0    0    0    0      0      0      0      0         0
/* CCCCCCCCCCCCCCCCCCCCCCCCCCCCCCCCCCCCCCCCCCCCCCCCCCCCCCCCCCCCCCCCCCCCCCCCCCCCC
/* C                             GFZ RSO-ORBIT                                 C
/* C DOI: https://doi.org/10.5880/GFZ_ORBIT/RSO/L65_G_v02                      C
/* C                                                                           C
/* C DORIS        RMS: not applicable                                          C
/* C GNSS-E Code  RMS: not applicable                                          C
/* C GNSS-E Phase RMS: not applicable                                          C
/* C GNSS-G Code  RMS:  50.746 [cm]   Obs.acc.:     13750 Obs.eli.:       921  C
/* C GNSS-G Phase RMS:   4.408 [mm]   Obs.acc.:     13750 Obs.eli.:       921  C
/* C SLR          RMS:   2.686 [cm]   Obs.acc.:        23 Obs.eli.:         0  C
/* C                                                                           C
/* CCCCCCCCCCCCCCCCCCCCCCCCCCCCCCCCCCCCCCCCCCCCCCCCCCCCCCCCCCCCCCCCCCCCCCCCCCCCC
*  2023  1 26 21  3  0.00000000
PL65    843.957723  -2423.191723   6371.819739   9085.910295
VL65 -21588.612551  67214.153879  28292.594340 999999.999999
*  2023  1 26 21  3 30.00000000
PL65    779.184150  -2220.115413   6453.162388   9086.378914
VL65 -21589.134592  68157.677708  25930.843463 999999.999999
*  2023  1 26 21  4  0.00000000
PL65    714.450556  -2014.320472   6527.376128   9086.847407
VL65 -21562.017544  69026.389250  23540.422067 999999.999999
*  2023  1 26 21  4 30.00000000
PL65    649.839324  -1806.032965   6594.378868   9087.315985
VL65 -21507.622434  69819.216033  21123.948689 999999.999999
*  2023  1 26 21  5  0.00000000
PL65    585.431706  -1595.482051   6654.096417 999999.999999
VL65 -21426.343393  70535.170201  18684.072685 999999.999999
*  2023  1 26 21  5 30.00000000
PL65    521.307721  -1382.899720   6706.462575   9088.252834
VL65 -21318.607850  71173.351093  16223.468700 999999.999999
*  2023  1 26 21  6  0.00000000
PL65    457.546055  -1168.520534   6751.419195   9088.721475
VL65 -21184.876823  71732.944925  13744.831380 999999.999999
*  2023  1 26 21  6 30.00000000
PL65    394.223963   -952.581368   6788.916240   9089.190842
VL65 -21025.643547  72213.223847  11250.871568 999999.999999
*  2023  1 26 21  7  0.00000000
PL65    331.417175   -735.321152   6818.911828   9089.661363
VL65 -20841.430182  72613.544769   8744.315207 999999.999999
*  2023  1 26 21  7 30.00000000
PL65    269.199813   -516.980617   6841.372277   9090.131942
VL65 -20632.786876  72933.350711   6227.904237 999999.999999
*  2023  1 26 21  8  0.00000000
PL65    207.644306   -297.802033   6856.272153   9090.602681
VL65 -20400.292571  73172.174010   3704.393672 999999.999999
*  2023  1 26 21  8 30.00000000
PL65    146.821303    -78.028936   6863.594302   9091.073381
VL65 -20144.554077  73329.637211   1176.546548 999999.999999
*  2023  1 26 21  9  0.00000000
PL65     86.799593    142.094139   6863.329864   9091.543421
VL65 -19866.204824  73405.452571  -1352.869595 999999.999999
*  2023  1 26 21  9 30.00000000
PL65     27.646026    362.321930   6855.478285   9092.013105
VL65 -19565.904001  73399.421768  -3881.084908 999999.999999
*  2023  1 26 21 10  0.00000000
PL65    -30.574562    582.408712   6840.047325   9092.482621
VL65 -19244.335208  73311.436528  -6405.329322 999999.999999
*  2023  1 26 21 10 30.00000000
PL65    -87.799423    802.108574   6817.053048   9092.952109
VL65 -18902.204974  73141.479398  -8922.835305 999999.999999
*  2023  1 26 21 11  0.00000000
PL65   -143.967958   1021.175687   6786.519814   9093.421391
VL65 -18540.241684  72889.624102 -11430.840931 999999.999999
*  2023  1 26 21 11 30.00000000
PL65   -199.021788   1239.364582   6748.480256   9093.890383
VL65 -18159.194317  72556.035667 -13926.592877 999999.999999
*  2023  1 26 21 12  0.00000000
PL65   -252.904808   1456.430422   6702.975253   9094.359072
VL65 -17759.830893  72140.970394 -16407.349407 999999.999999
*  2023  1 26 21 12 30.00000000
PL65   -305.563243   1672.129272   6650.053883   9094.827669
VL65 -17342.937370  71644.775477 -18870.383317 999999.999999
*  2023  1 26 21 13  0.00000000
PL65   -356.945705   1886.218379   6589.773386   9095.296234
VL65 -16909.317182  71067.888534 -21312.984654 999999.999999
*  2023  1 26 21 13 30.00000000
PL65   -407.003239   2098.456436   6522.199099   9095.764823
VL65 -16459.790404  70410.836798 -23732.463318 999999.999999
*  2023  1 26 21 14  0.00000000
PL65   -455.689375   2308.603849   6447.404398   9096.233468
VL65 -15995.191855  69674.236571 -26126.150245 999999.999999
*  2023  1 26 21 14 30.00000000
PL65   -502.960166   2516.423011   6365.470636   9096.702051
VL65 -15516.369922  68858.795001 -28491.398854 999999.999999
*  2023  1 26 21 15  0.00000000
PL65   -548.774232   2721.678574   6276.487064   9097.170614
VL65 -15024.186070  67965.311526 -30825.589665 999999.999999
*  2023  1 26 21 15 30.00000000
PL65   -593.092793   2924.137725   6180.550745   9097.639153
VL65 -14519.513273  66994.676646 -33126.135355 999999.999999
*  2023  1 26 21 16  0.00000000
PL65   -635.879705   3123.570458   6077.766450   9098.107705
VL65 -14003.234439  65947.869461 -35390.484280 999999.999999
*  2023  1 26 21 16 30.00000000
PL65   -677.101485   3319.749832   5968.246552   9098.576215
VL65 -13476.241219  64825.955449 -37616.121996 999999.999999
*  2023  1 26 21 17  0.00000000
PL65   -716.727337   3512.452233   5852.110907   9099.044622
VL65 -12939.432316  63630.086524 -39800.572408 999999.999999
*  2023  1 26 21 17 30.00000000
PL65   -754.729167   3701.457632   5729.486740   9099.513049
VL65 -12393.711696  62361.501244 -41941.401201 999999.999999
*  2023  1 26 21 18  0.00000000
PL65   -791.081603   3886.549845   5600.508512   9099.981540
VL65 -11839.987125  61021.522743 -44036.218957 999999.999999
*  2023  1 26 21 18 30.00000000
PL65   -825.761997   4067.516779   5465.317783   9100.450061
VL65 -11279.169823  59611.557388 -46082.682035 999999.999999
*  2023  1 26 21 19  0.00000000
PL65   -858.750444   4244.150690   5324.063072   9100.918644
VL65 -10712.174488  58133.095958 -48078.494592 999999.999999
*  2023  1 26 21 19 30.00000000
PL65   -890.029783   4416.248431   5176.899710   9101.387200
VL65 -10139.917546  56587.713750 -50021.413732 999999.999999
*  2023  1 26 21 20  0.00000000
PL65   -919.585603   4583.611706   5023.989671   9101.855752
VL65  -9563.314599  54977.067348 -51909.253961 999999.999999
*  2023  1 26 21 20 30.00000000
PL65   -947.406238   4746.047304   4865.501394   9102.324343
VL65  -8983.279142  53302.892122 -53739.889022 999999.999999
*  2023  1 26 21 21  0.00000000
PL65   -973.482756   4903.367340   4701.609608   9102.792932
VL65  -8400.721122  51567.001138 -55511.254830 999999.999999
*  2023  1 26 21 21 30.00000000
PL65   -997.808946   5055.389481   4532.495135   9103.261516
VL65  -7816.544613  49771.282075 -57221.353230 999999.999999
*  2023  1 26 21 22  0.00000000
PL65  -1020.381302   5201.937160   4358.344689   9103.729931
VL65  -7231.646373  47917.692541 -58868.253409 999999.999999
*  2023  1 26 21 22 30.00000000
PL65  -1041.198993   5342.839788   4179.350680   9104.198349
VL65  -6646.916259  46008.257681 -60450.090141 999999.999999
*  2023  1 26 21 23  0.00000000
PL65  -1060.263851   5477.932954   3995.711013   9104.666817
VL65  -6063.237503  44045.072574 -61965.064421 999999.999999
*  2023  1 26 21 23 30.00000000
PL65  -1077.580345   5607.058636   3807.628886   9105.135410
VL65  -5481.484923  42030.302360 -63411.448456 999999.999999
*  2023  1 26 21 24  0.00000000
PL65  -1093.155552   5730.065413   3615.312568   9105.603939
VL65  -4902.523446  39966.179774 -64787.589484 999999.999999
*  2023  1 26 21 24 30.00000000
PL65  -1106.999131   5846.808659   3418.975169   9106.072601
VL65  -4327.207402  37855.002878 -66091.913822 999999.999999
*  2023  1 26 21 25  0.00000000
PL65  -1119.123285   5957.150733   3218.834396   9106.541295
VL65  -3756.379146  35699.130660 -67322.930386 999999.999999
*  2023  1 26 21 25 30.00000000
PL65  -1129.542721   6060.961161   3015.112303   9107.009943
VL65  -3190.865710  33500.979130 -68479.232703 999999.999999
*  2023  1 26 21 26  0.00000000
PL65  -1138.274603   6158.116796   2808.035037   9107.478488
VL65  -2631.475189  31263.017093 -69559.500264 999999.999999
*  2023  1 26 21 26 30.00000000
PL65  -1145.338485   6248.501970   2597.832574   9107.946960
VL65  -2078.996956  28987.762426 -70562.498221 999999.999999
*  2023  1 26 21 27  0.00000000
PL65  -1150.756269   6332.008641   2384.738469   9108.415407
VL65  -1534.202850  26677.780326 -71487.078004 999999.999999
*  2023  1 26 21 27 30.00000000
PL65  -1154.552141   6408.536534   2168.989588   9108.883894
VL65   -997.846327  24335.681555 -72332.179517 999999.999999
*  2023  1 26 21 28  0.00000000
PL65  -1156.752519   6477.993266   1950.825842   9109.352393
VL65   -470.660776  21964.119462 -73096.833798 999999.999999
EOF
